{"type": "FeatureCollection", "features": [ {"type": "Feature", "properties": {"norad_id": 65077, "name": "CREW DRAGON 11", "group": "stations", "lat": -48.71421078151749, "lon": 42.387154789326814, "alt_km": 420.8505197648992, "timestamp": "2025-12-09T14:52:24.958909+00:00", "meta": {"OBJECT_NAME": "CREW DRAGON 11", "OBJECT_ID": "2025-166A", "EPOCH": "2025-12-09T04:29:48.234912", "MEAN_MOTION": 15.4943846, "ECCENTRICITY": 0.00033664, "INCLINATION": 51.6308, "RA_OF_ASC_NODE": 160.0685, "ARG_OF_PERICENTER": 223.6321, "MEAN_ANOMALY": 136.4401, "EPHEMERIS_TYPE": 0, "CLASSIFICATION_TYPE": "U", "NORAD_CAT_ID": 65077, "ELEMENT_SET_NO": 999, "REV_AT_EPOCH": 214, "BSTAR": 0.0002526091, "MEAN_MOTION_DOT": 0.00013707, "MEAN_MOTION_DDOT": 0}, "tle": {"line1": "1 65077U 25166A   25343.18736383  .00013707  00000+0  25261-3 0  9997", "line2": "2 65077  51.6308 160.0685 0003366 223.6321 136.4401 15.49438460  2143"}}, "geometry": {"type": "Point", "coordinates": [42.387154789326814, -48.71421078151749]}}, {"type": "Feature", "properties": {"norad_id": 65304, "name": "DRAGON CRS-33", "group": "stations", "lat": -48.71421099957242, "lon": 42.387155709171964, "alt_km": 420.8505197836457, "timestamp": "2025-12-09T14:52:24.958919+00:00", "meta": {"OBJECT_NAME": "DRAGON CRS-33", "OBJECT_ID": "2025-186A", "EPOCH": "2025-12-09T04:29:48.234912", "MEAN_MOTION": 15.4943846, "ECCENTRICITY": 0.00033664, "INCLINATION": 51.6308, "RA_OF_ASC_NODE": 160.0685, "ARG_OF_PERICENTER": 223.6321, "MEAN_ANOMALY": 136.4401, "EPHEMERIS_TYPE": 0, "CLASSIFICATION_TYPE": "U", "NORAD_CAT_ID": 65304, "ELEMENT_SET_NO": 999, "REV_AT_EPOCH": 11, "BSTAR": 0.0002526091, "MEAN_MOTION_DOT": 0.00013707, "MEAN_MOTION_DDOT": 0}, "tle": {"line1": "1 65304U 25186A   25343.18736383  .00013707  00000+0  25261-3 0  9992", "line2": "2 65304  51.6308 160.0685 0003366 223.6321 136.4401 15.49438460   111"}}, "geometry": {"type": "Point", "coordinates": [42.387155709171964, -48.71421099957242]}}, {"type": "Feature", "properties": {"norad_id": 65586, "name": "PROGRESS-MS 32", "group": "stations", "lat": -48.71421121762761, "lon": 42.38715662901811, "alt_km": 420.8505198023895, "timestamp": "2025-12-09T14:52:24.958929+00:00", "meta": {"OBJECT_NAME": "PROGRESS-MS 32", "OBJECT_ID": "2025-204A", "EPOCH": "2025-12-09T04:29:48.234912", "MEAN_MOTION": 15.4943846, "ECCENTRICITY": 0.00033664, "INCLINATION": 51.6308, "RA_OF_ASC_NODE": 160.0685, "ARG_OF_PERICENTER": 223.6321, "MEAN_ANOMALY": 136.4401, "EPHEMERIS_TYPE": 0, "CLASSIFICATION_TYPE": "U", "NORAD_CAT_ID": 65586, "ELEMENT_SET_NO": 999, "REV_AT_EPOCH": 27, "BSTAR": 0.0002526091, "MEAN_MOTION_DOT": 0.00013707, "MEAN_MOTION_DDOT": 0}, "tle": {"line1": "1 65586U 25204A   25343.18736383  .00013707  00000+0  25261-3 0  9995", "line2": "2 65586  51.6308 160.0685 0003366 223.6321 136.4401 15.49438460   270"}}, "geometry": {"type": "Point", "coordinates": [42.38715662901811, -48.71421121762761]}}, {"type": "Feature", "properties": {"norad_id": 65616, "name": "CYGNUS NG-23", "group": "stations", "lat": -48.71421143568292, "lon": 42.38715754886495, "alt_km": 420.8505198211351, "timestamp": "2025-12-09T14:52:24.958939+00:00", "meta": {"OBJECT_NAME": "CYGNUS NG-23", "OBJECT_ID": "2025-208A", "EPOCH": "2025-12-09T04:29:48.234912", "MEAN_MOTION": 15.4943846, "ECCENTRICITY": 0.00033664, "INCLINATION": 51.6308, "RA_OF_ASC_NODE": 160.0685, "ARG_OF_PERICENTER": 223.6321, "MEAN_ANOMALY": 136.4401, "EPHEMERIS_TYPE": 0, "CLASSIFICATION_TYPE": "U", "NORAD_CAT_ID": 65616, "ELEMENT_SET_NO": 999, "REV_AT_EPOCH": 22, "BSTAR": 0.0002526091, "MEAN_MOTION_DOT": 0.00013707, "MEAN_MOTION_DDOT": 0}, "tle": {"line1": "1 65616U 25208A   25343.18736383  .00013707  00000+0  25261-3 0  9993", "line2": "2 65616  51.6308 160.0685 0003366 223.6321 136.4401 15.49438460   229"}}, "geometry": {"type": "Point", "coordinates": [42.38715754886495, -48.71421143568292]}}, {"type": "Feature", "properties": {"norad_id": 65729, "name": "DRAGONFLY", "group": "stations", "lat": -10.065699375661755, "lon": 143.6363044989454, "alt_km": 359.51302101694, "timestamp": "2025-12-09T14:52:24.958949+00:00", "meta": {"OBJECT_NAME": "DRAGONFLY", "OBJECT_ID": "1998-067XH", "EPOCH": "2025-12-08T17:32:47.526432", "MEAN_MOTION": 15.70229086, "ECCENTRICITY": 0.00065245, "INCLINATION": 51.6249, "RA_OF_ASC_NODE": 156.265, "ARG_OF_PERICENTER": 251.495, "MEAN_ANOMALY": 108.5339, "EPHEMERIS_TYPE": 0, "CLASSIFICATION_TYPE": "U", "NORAD_CAT_ID": 65729, "ELEMENT_SET_NO": 999, "REV_AT_EPOCH": 1253, "BSTAR": 0.0013272482, "MEAN_MOTION_DOT": 0.00167478, "MEAN_MOTION_DDOT": 0}, "tle": {"line1": "1 65729U 98067XH  25342.73110563  .00167478  00000+0  13272-2 0  9990", "line2": "2 65729  51.6249 156.2650 0006524 251.4950 108.5339 15.70229086 12536"}}, "geometry": {"type": "Point", "coordinates": [143.6363044989454, -10.065699375661755]}}, {"type": "Feature", "properties": {"norad_id": 65731, "name": "1998-067XK", "group": "stations", "lat": 49.9256314465679, "lon": -136.5899981491131, "alt_km": 369.66238833588704, "timestamp": "2025-12-09T14:52:24.958962+00:00", "meta": {"OBJECT_NAME": "1998-067XK", "OBJECT_ID": "1998-067XK", "EPOCH": "2025-12-08T17:05:09.005856", "MEAN_MOTION": 15.64723492, "ECCENTRICITY": 0.00054045, "INCLINATION": 51.628, "RA_OF_ASC_NODE": 157.6517, "ARG_OF_PERICENTER": 220.4904, "MEAN_ANOMALY": 139.5689, "EPHEMERIS_TYPE": 0, "CLASSIFICATION_TYPE": "U", "NORAD_CAT_ID": 65731, "ELEMENT_SET_NO": 999, "REV_AT_EPOCH": 1251, "BSTAR": 0.0010050991, "MEAN_MOTION_DOT": 0.00100336, "MEAN_MOTION_DDOT": 0}, "tle": {"line1": "1 65731U 98067XK  25342.71190979  .00100336  00000+0  10051-2 0  9992", "line2": "2 65731  51.6280 157.6517 0005404 220.4904 139.5689 15.64723492 12515"}}, "geometry": {"type": "Point", "coordinates": [-136.5899981491131, 49.9256314465679]}}, {"type": "Feature", "properties": {"norad_id": 65732, "name": "RSP-03", "group": "stations", "lat": 14.74067804113061, "lon": 164.44747301564283, "alt_km": 368.13810402445324, "timestamp": "2025-12-09T14:52:24.958973+00:00", "meta": {"OBJECT_NAME": "RSP-03", "OBJECT_ID": "1998-067XL", "EPOCH": "2025-12-08T18:54:04.824576", "MEAN_MOTION": 15.67324417, "ECCENTRICITY": 0.00061707, "INCLINATION": 51.626, "RA_OF_ASC_NODE": 156.6485, "ARG_OF_PERICENTER": 224.9015, "MEAN_ANOMALY": 135.1483, "EPHEMERIS_TYPE": 0, "CLASSIFICATION_TYPE": "U", "NORAD_CAT_ID": 65732, "ELEMENT_SET_NO": 999, "REV_AT_EPOCH": 1254, "BSTAR": 0.0012544744, "MEAN_MOTION_DOT": 0.00139916, "MEAN_MOTION_DDOT": 0}, "tle": {"line1": "1 65732U 98067XL  25342.78755584  .00139916  00000+0  12545-2 0  9995", "line2": "2 65732  51.6260 156.6485 0006170 224.9015 135.1483 15.67324417 12544"}}, "geometry": {"type": "Point", "coordinates": [164.44747301564283, 14.74067804113061]}}, {"type": "Feature", "properties": {"norad_id": 65733, "name": "GHS-01", "group": "stations", "lat": -37.12416064759786, "lon": 8.07766493295268, "alt_km": 349.9604903792506, "timestamp": "2025-12-09T14:52:24.958984+00:00", "meta": {"OBJECT_NAME": "GHS-01", "OBJECT_ID": "1998-067XM", "EPOCH": "2025-12-09T00:10:31.774944", "MEAN_MOTION": 15.72845555, "ECCENTRICITY": 0.00068773, "INCLINATION": 51.6283, "RA_OF_ASC_NODE": 154.3653, "ARG_OF_PERICENTER": 253.5848, "MEAN_ANOMALY": 106.4394, "EPHEMERIS_TYPE": 0, "CLASSIFICATION_TYPE": "U", "NORAD_CAT_ID": 65733, "ELEMENT_SET_NO": 999, "REV_AT_EPOCH": 1259, "BSTAR": 0.0015000957, "MEAN_MOTION_DOT": 0.0021266, "MEAN_MOTION_DDOT": 0}, "tle": {"line1": "1 65733U 98067XM  25343.00731221  .00212660  00000+0  15001-2 0  9992", "line2": "2 65733  51.6283 154.3653 0006877 253.5848 106.4394 15.72845555 12592"}}, "geometry": {"type": "Point", "coordinates": [8.07766493295268, -37.12416064759786]}}, {"type": "Feature", "properties": {"norad_id": 65941, "name": "YOTSUBA-KULOVER", "group": "stations", "lat": -51.562794534429564, "lon": 62.40011479644461, "alt_km": 394.89382824756285, "timestamp": "2025-12-09T14:52:24.958994+00:00", "meta": {"OBJECT_NAME": "YOTSUBA-KULOVER", "OBJECT_ID": "1998-067XN", "EPOCH": "2025-12-08T16:11:16.679040", "MEAN_MOTION": 15.58725095, "ECCENTRICITY": 0.00016918, "INCLINATION": 51.6278, "RA_OF_ASC_NODE": 160.3988, "ARG_OF_PERICENTER": 209.1564, "MEAN_ANOMALY": 150.9334, "EPHEMERIS_TYPE": 0, "CLASSIFICATION_TYPE": "U", "NORAD_CAT_ID": 65941, "ELEMENT_SET_NO": 999, "REV_AT_EPOCH": 922, "BSTAR": 0.00092611573, "MEAN_MOTION_DOT": 0.00072881, "MEAN_MOTION_DDOT": 0}, "tle": {"line1": "1 65941U 98067XN  25342.67449860  .00072881  00000+0  92612-3 0  9993", "line2": "2 65941  51.6278 160.3988 0001691 209.1564 150.9334 15.58725095  9220"}}, "geometry": {"type": "Point", "coordinates": [62.40011479644461, -51.562794534429564]}}, {"type": "Feature", "properties": {"norad_id": 65942, "name": "BOTAN", "group": "stations", "lat": -15.418089861267074, "lon": -12.334183662829144, "alt_km": 382.083392165674, "timestamp": "2025-12-09T14:52:24.959004+00:00", "meta": {"OBJECT_NAME": "BOTAN", "OBJECT_ID": "1998-067XP", "EPOCH": "2025-12-08T18:03:33.084000", "MEAN_MOTION": 15.61774772, "ECCENTRICITY": 0.00036469, "INCLINATION": 51.6289, "RA_OF_ASC_NODE": 159.4206, "ARG_OF_PERICENTER": 205.1392, "MEAN_ANOMALY": 154.9425, "EPHEMERIS_TYPE": 0, "CLASSIFICATION_TYPE": "U", "NORAD_CAT_ID": 65942, "ELEMENT_SET_NO": 999, "REV_AT_EPOCH": 924, "BSTAR": 0.0011867098, "MEAN_MOTION_DOT": 0.00105605, "MEAN_MOTION_DDOT": 0}, "tle": {"line1": "1 65942U 98067XP  25342.75246625  .00105605  00000+0  11867-2 0  9990", "line2": "2 65942  51.6289 159.4206 0003646 205.1392 154.9425 15.61774772  9249"}}, "geometry": {"type": "Point", "coordinates": [-12.334183662829144, -15.418089861267074]}}]}